[{"OBJECT_NAME":"EXO-0","OBJECT_ID":"2023-174DK","EPOCH":"2026-03-09T17:03:04.419648","MEAN_MOTION":15.32821991,"ECCENTRICITY":0.00098779,"INCLINATION":97.3864,"RA_OF_ASC_NODE":148.9039,"ARG_OF_PERICENTER":157.1125,"MEAN_ANOMALY":203.0559,"EPHEMERIS_TYPE":0,"CLASSIFICATION_TYPE":"U","NORAD_CAT_ID":59175,"ELEMENT_SET_NO":999,"REV_AT_EPOCH":12979,"BSTAR":0.00036716083,"MEAN_MOTION_DOT":0.00011582,"MEAN_MOTION_DDOT":0},{"OBJECT_NAME":"STARLINK-33597","OBJECT_ID":"2025-015F","EPOCH":"2026-03-09T22:20:11.298912","MEAN_MOTION":15.30205109,"ECCENTRICITY":0.00010875,"INCLINATION":53.1587,"RA_OF_ASC_NODE":321.6485,"ARG_OF_PERICENTER":78.5301,"MEAN_ANOMALY":281.5822,"EPHEMERIS_TYPE":0,"CLASSIFICATION_TYPE":"U","NORAD_CAT_ID":62763,"ELEMENT_SET_NO":999,"REV_AT_EPOCH":6451,"BSTAR":0.001206632,"MEAN_MOTION_DOT":0.00035555,"MEAN_MOTION_DDOT":0}]
